[{"OBJECT_NAME":"STARLINK-31704","OBJECT_ID":"2024-076Y","EPOCH":"2026-03-09T22:00:01.999584","MEAN_MOTION":15.30892355,"ECCENTRICITY":0.00079744,"INCLINATION":42.9978,"RA_OF_ASC_NODE":323.2923,"ARG_OF_PERICENTER":240.5046,"MEAN_ANOMALY":200.4144,"EPHEMERIS_TYPE":0,"CLASSIFICATION_TYPE":"U","NORAD_CAT_ID":59586,"ELEMENT_SET_NO":999,"REV_AT_EPOCH":581,"BSTAR":0.0024766131,"MEAN_MOTION_DOT":0.00076042,"MEAN_MOTION_DDOT":0},{"OBJECT_NAME":"STARLINK-35683","OBJECT_ID":"2025-257AB","EPOCH":"2026-03-09T16:26:51.457056","MEAN_MOTION":15.3017288,"ECCENTRICITY":0.00014136,"INCLINATION":53.159,"RA_OF_ASC_NODE":216.9781,"ARG_OF_PERICENTER":51.3731,"MEAN_ANOMALY":308.7396,"EPHEMERIS_TYPE":0,"CLASSIFICATION_TYPE":"U","NORAD_CAT_ID":66405,"ELEMENT_SET_NO":999,"REV_AT_EPOCH":1966,"BSTAR":0.00066600395,"MEAN_MOTION_DOT":0.00019401,"MEAN_MOTION_DDOT":0}]
